GLOBALSTAR M075         
1 37192U 10054E   24219.98126341 -.00000090  00000+0  78465-4 0  9997
2 37192  51.9950  58.2252 0000745  75.6629  74.6413 12.62262411636320
GLOBALSTAR M083         
1 37739U 11033A   24219.75887840 -.00000075  00000+0  16255-3 0  9996
2 37739  51.9856 281.6446 0000308 146.5270  13.4023 12.62263291607147
GLOBALSTAR M088         
1 37740U 11033B   24219.93852139 -.00000115  00000+0 -61685-4 0  9995
2 37740  51.9713 186.8494 0000197 350.1434  26.9054 12.62265845602719
GLOBALSTAR M091         
1 37741U 11033C   24220.22227234 -.00000085  00000+0  10632-3 0  9992
2 37741  51.9989 148.9815 0000292 359.5562 165.8533 12.62265272603790
GLOBALSTAR M085         
1 37742U 11033D   24220.12776348 -.00000067  00000+0  20250-3 0  9994
2 37742  51.9864 100.5842 0000490  47.9589 109.1874 12.62264149604527
GLOBALSTAR M081         
1 37743U 11033E   24220.07295973 -.00000059  00000+0  25042-3 0  9994
2 37743  51.9957 103.3448 0000670  32.2601 115.2407 12.62267566604555
GLOBALSTAR M089         
1 37744U 11033F   24220.03748469 -.00000089  00000+0  84647-4 0  9994
2 37744  51.9934  57.7415 0001125  68.9262  95.7760 12.62266714605269
